school_name,url_address,address_short,postal_code,address,Latitude,Longitude
ADMIRALTY PRIMARY SCHOOL,https://admiraltypri.moe.edu.sg/,11  WOODLANDS CIRCLE,738907,11  WOODLANDS CIRCLE Singapore 738907,1.4430507,103.8004349
ADMIRALTY SECONDARY SCHOOL,http://www.admiraltysec.moe.edu.sg,31  WOODLANDS CRESCENT,737916,31  WOODLANDS CRESCENT Singapore 737916,1.4462673,103.8026082
AHMAD IBRAHIM PRIMARY SCHOOL,http://www.ahmadibrahimpri.moe.edu.sg,10  YISHUN STREET 11,768643,10  YISHUN STREET 11 Singapore 768643,1.4337487,103.8330381
AHMAD IBRAHIM SECONDARY SCHOOL,http://www.ahmadibrahimsec.moe.edu.sg,751 YISHUN AVENUE 7,768928,751 YISHUN AVENUE 7 Singapore 768928,1.4364083,103.8301397
AI TONG SCHOOL,http://www.aitong.moe.edu.sg,100 Bright Hill Drive,579646,100 Bright Hill Drive Singapore 579646,1.3601691,103.8327777
ALEXANDRA PRIMARY SCHOOL,http://alexandrapri.moe.edu.sg,2A  Prince Charles Crescent,159016,2A  Prince Charles Crescent Singapore 159016,1.2912231,103.8239482
ANCHOR GREEN PRIMARY SCHOOL,http://www.anchorgreenpri.moe.edu.sg,31  Anchorvale Drive,544969,31  Anchorvale Drive Singapore 544969,1.3911216,103.8871444
ANDERSON PRIMARY SCHOOL,http://www.andersonpri.moe.edu.sg,19  ANG MO KIO AVE 9,569785,19  ANG MO KIO AVE 9 Singapore 569785,1.3846371,103.8412807
ANDERSON SECONDARY SCHOOL,http://www.andersonsec.moe.edu.sg,10  ANG MO KIO STREET 53,569206,10  ANG MO KIO STREET 53 Singapore 569206,1.3746835,103.8515167
ANDERSON SERANGOON JUNIOR COLLEGE,www.asrjc.moe.edu.sg,4500 ANG MO KIO AVENUE 6,569843,4500 ANG MO KIO AVENUE 6 Singapore 569843,1.3760492,103.8451154
ANG MO KIO PRIMARY SCHOOL,http://www.angmokiopri.moe.edu.sg,20  ANG MO KIO AVENUE 3,569920,20  ANG MO KIO AVENUE 3 Singapore 569920,1.3694039,103.8398314
ANG MO KIO SECONDARY SCHOOL,http://www.angmokiosec.moe.edu.sg,6 ANG MO KIO STREET 22,569362,6 ANG MO KIO STREET 22 Singapore 569362,1.3678468,103.8430018
ANGLICAN HIGH SCHOOL,http://www.anglicanhigh.moe.edu.sg,600 UPPER CHANGI ROAD,487012,600 UPPER CHANGI ROAD Singapore 487012,1.3300216,103.942429
ANGLO-CHINESE JUNIOR COLLEGE,http://www.acjc.edu.sg,25  DOVER CLOSE EAST,139745,25  DOVER CLOSE EAST Singapore 139745,1.3032395,103.7851322
ANGLO-CHINESE SCHOOL (BARKER ROAD),http://www.acsbr.moe.edu.sg,60  BARKER ROAD,309919,60  BARKER ROAD Singapore 309919,1.3188307,103.8359107
ANGLO-CHINESE SCHOOL (INDEPENDENT),http://www.acsindep.moe.edu.sg,121 DOVER ROAD,139650,121 DOVER ROAD Singapore 139650,1.3031399,103.7800393
ANGLO-CHINESE SCHOOL (JUNIOR),www.acsj.moe.edu.sg,16  WINSTEDT ROAD,227988,16  WINSTEDT ROAD Singapore 227988,1.3093609,103.841643
ANGLO-CHINESE SCHOOL (PRIMARY),http://www.acspri.moe.edu.sg/,50  BARKER ROAD,309918,50  BARKER ROAD Singapore 309918,1.318658,103.8351516
ANGSANA PRIMARY SCHOOL,www.angsanapri.moe.edu.sg,3 Tampines Street 22,529366,3 Tampines Street 22 Singapore 529366,1.3486107,103.9515621
ASSUMPTION ENGLISH SCHOOL,http://www.assumptionenglish.moe.edu.sg,622 UPPER BUKIT TIMAH ROAD,678117,622 UPPER BUKIT TIMAH ROAD Singapore 678117,1.3694697,103.76621
ASSUMPTION PATHWAY SCHOOL,http://www.aps.edu.sg,30  Cashew Road,679697,30  Cashew Road Singapore 679697,1.3705653,103.7668438
BARTLEY SECONDARY SCHOOL,http://www.bartleysec.moe.edu.sg,10  JALAN BUNGA RAMPAI,538403,10  JALAN BUNGA RAMPAI Singapore 538403,1.3403549,103.8827957
BEACON PRIMARY SCHOOL,https://beaconpri.moe.edu.sg/,36  Bukit Panjang Ring Road,679944,36  Bukit Panjang Ring Road Singapore 679944,1.384463,103.7737799
BEATTY SECONDARY SCHOOL,http://www.beattysec.moe.edu.sg,1 TOA PAYOH NORTH,318990,1 TOA PAYOH NORTH Singapore 318990,1.3418015,103.8520373
BEDOK GREEN PRIMARY SCHOOL,http://www.bedokgreenpri.moe.edu.sg,1 BEDOK SOUTH AVE 2,469317,1 BEDOK SOUTH AVE 2 Singapore 469317,1.3237397,103.9380502
BEDOK GREEN SECONDARY SCHOOL,http://www.bedokgreensec.moe.edu.sg,360 BEDOK NORTH AVE 3,469722,360 BEDOK NORTH AVE 3 Singapore 469722,1.3341416,103.935336
BEDOK SOUTH SECONDARY SCHOOL,http://www.bedoksouthsec.moe.edu.sg,1 JALAN LANGGAR BEDOK,468585,1 JALAN LANGGAR BEDOK Singapore 468585,1.3245582,103.9510862
BEDOK VIEW SECONDARY SCHOOL,http://www.bedokviewsec.moe.edu.sg,6 BEDOK SOUTH AVENUE 3,469293,6 BEDOK SOUTH AVENUE 3 Singapore 469293,1.3250804,103.9445479
BENDEMEER PRIMARY SCHOOL,http://www.bendemeerpri.moe.edu.sg/,91  BENDEMEER ROAD,339948,91  BENDEMEER ROAD Singapore 339948,1.3219586,103.8652708
BENDEMEER SECONDARY SCHOOL,http://www.bendemeersec.moe.edu.sg,1 ST WILFRED ROAD,327919,1 ST WILFRED ROAD Singapore 327919,1.3243256,103.8606664
BLANGAH RISE PRIMARY SCHOOL,http://www.blangahrisepri.moe.edu.sg/,91  TELOK BLANGAH HEIGHTS,109100,91  TELOK BLANGAH HEIGHTS Singapore 109100,1.2762772,103.8084085
BOON LAY GARDEN PRIMARY SCHOOL,www.boonlaygardenpri.moe.edu.sg,20  BOON LAY DRIVE,649930,20  BOON LAY DRIVE Singapore 649930,1.3432524,103.7131697
BOON LAY SECONDARY SCHOOL,https://www.boonlaysec.moe.edu.sg,11  JURONG WEST STREET 65,648354,11  JURONG WEST STREET 65 Singapore 648354,1.342253,103.702175
BOWEN SECONDARY SCHOOL,http://www.bowensec.moe.edu.sg,2 LORONG NAPIRI,547529,2 LORONG NAPIRI Singapore 547529,1.3701694,103.8777444
BROADRICK SECONDARY SCHOOL,http://www.broadricksec.moe.edu.sg,61  DAKOTA CRESCENT,399935,61  DAKOTA CRESCENT Singapore 399935,1.307581,103.8869961
BUKIT BATOK SECONDARY SCHOOL,http://www.bukitbatoksec.moe.edu.sg,50  BUKIT BATOK WEST AVE 8,658962,50  BUKIT BATOK WEST AVE 8 Singapore 658962,1.3483736,103.7410479
BUKIT MERAH SECONDARY SCHOOL,http://www.bukitmerahsec.moe.edu.sg,10  LENGKOK BAHRU,159050,10  LENGKOK BAHRU Singapore 159050,1.28582,103.8135658
BUKIT PANJANG GOVT. HIGH SCHOOL,http://www.bpghs.moe.edu.sg,7 CHOA CHU KANG AVE 4,689809,7 CHOA CHU KANG AVE 4 Singapore 689809,1.3820938,103.7385106
BUKIT PANJANG PRIMARY SCHOOL,http://www.bukitpanjangpri.moe.edu.sg,109 CASHEW ROAD,679676,109 CASHEW ROAD Singapore 679676,1.3736297,103.7691976
BUKIT TIMAH PRIMARY SCHOOL,http://www.bukittimahpri.moe.edu.sg,111 Lorong Kismis,598112,111 Lorong Kismis Singapore 598112,1.337676,103.7667593
BUKIT VIEW PRIMARY SCHOOL,http://www.bukitviewpri.moe.edu.sg,18  BUKIT BATOK STREET 21,659634,18  BUKIT BATOK STREET 21 Singapore 659634,1.3462606,103.7538306
BUKIT VIEW SECONDARY SCHOOL,https://www.bukitviewsec.moe.edu.sg,16  BUKIT BATOK STREET 21,659633,16  BUKIT BATOK STREET 21 Singapore 659633,1.3460032,103.7520453
CANBERRA PRIMARY SCHOOL,http://www.canberrapri.moe.edu.sg,21  ADMIRALTY DRIVE,757714,21  ADMIRALTY DRIVE Singapore 757714,1.4511784,103.8156488
CANBERRA SECONDARY SCHOOL,https://canberrasec.moe.edu.sg,51  SEMBAWANG DRIVE,757699,51  SEMBAWANG DRIVE Singapore 757699,1.4536086,103.8144714
CANOSSA CATHOLIC PRIMARY SCHOOL,https://canossacatholicpri.moe.edu.sg/,1 Sallim Road,387621,1 Sallim Road Singapore 387621,1.3262882,103.8821841
CANTONMENT PRIMARY SCHOOL,http://www.cantonmentpri.moe.edu.sg,1 Cantonment Close,88256,1 Cantonment Close Singapore 88256,1.2754392,103.8400126
CASUARINA PRIMARY SCHOOL,http://www.casuarinapri.moe.edu.sg/,30  PASIR RIS ST 41,518935,30  PASIR RIS ST 41 Singapore 518935,1.37252,103.9569108
CATHOLIC HIGH SCHOOL,http://www.catholichigh.moe.edu.sg,9 BISHAN STREET 22,579767,9 BISHAN STREET 22 Singapore 579767,1.3551978,103.8453116
CATHOLIC JUNIOR COLLEGE,https://cjc.moe.edu.sg/,129 WHITLEY ROAD,297822,129 WHITLEY ROAD Singapore 297822,1.324642,103.8355473
CEDAR GIRLS' SECONDARY SCHOOL,http://www.cedargirlssec.moe.edu.sg,1 CEDAR AVENUE,349692,1 CEDAR AVENUE Singapore 349692,1.3336693,103.8744147
CEDAR PRIMARY SCHOOL,Http://www.cedarpri.moe.edu.sg,15  CEDAR AVENUE,349700,15  CEDAR AVENUE Singapore 349700,1.3356642,103.8753497
CHANGKAT CHANGI SECONDARY SCHOOL,http://www.changkatchangisec.moe.edu.sg,23  SIMEI ST 3,529894,23  SIMEI ST 3 Singapore 529894,1.3408103,103.9526046
CHANGKAT PRIMARY SCHOOL,http://www.changkatpri.moe.edu.sg/,11  SIMEI ST 3,529896,11  SIMEI ST 3 Singapore 529896,1.340245,103.9522864
CHIJ (KATONG) PRIMARY,http://chijkcp.moe.edu.sg/,17  MARTIA ROAD,424821,17  MARTIA ROAD Singapore 424821,1.3064102,103.9109552
CHIJ (KELLOCK),http://www.chijkellock.moe.edu.sg/,1 Bukit Teresa Road,99757,1 Bukit Teresa Road Singapore 99757,1.2752133,103.8278754
CHIJ KATONG CONVENT,http://www.chijkatongconvent.moe.edu.sg,346 MARINE TERRACE,449150,346 MARINE TERRACE Singapore 449150,1.3065932,103.9173898
COMPASSVALE PRIMARY SCHOOL,http://www.compassvalepri.moe.edu.sg/,21  COMPASSVALE ST,545091,21  COMPASSVALE ST Singapore 545091,1.3945947,103.8980414
CHIJ OUR LADY OF GOOD COUNSEL,http://www.chijourladyofgoodcounsel.moe.edu.sg,2C  Burghley Drive,558979,2C  Burghley Drive Singapore 558979,1.3575062,103.8638825
CHIJ OUR LADY OF THE NATIVITY,http://www.chijourladyofthenativity.moe.edu.sg/,1257 UPPER SERANGOON ROAD,534793,1257 UPPER SERANGOON ROAD Singapore 534793,1.3731865,103.8978882
CHIJ OUR LADY QUEEN OF PEACE,http://www.chijourladyqueenofpeace.moe.edu.sg/,4 Chestnut Drive,679287,4 Chestnut Drive Singapore 679287,1.366297,103.767594
CHIJ PRIMARY (TOA PAYOH),http://www.chijpritoapayoh.moe.edu.sg,628 Lorong 1 Toa Payoh,319765,628 Lorong 1 Toa Payoh Singapore 319765,1.3329188,103.8418194
CHIJ SECONDARY (TOA PAYOH),http://www.chijsec.edu.sg,626 LORONG 1 TOA PAYOH,319764,626 LORONG 1 TOA PAYOH Singapore 319764,1.3324745,103.8432669
CHIJ ST. JOSEPH'S CONVENT,http://www.chijstjosephsconvent.moe.edu.sg,62  SENGKANG EAST WAY,548595,62  SENGKANG EAST WAY Singapore 548595,1.3918631,103.9025211
CHIJ ST. NICHOLAS GIRLS' SCHOOL,http://www.chijstnicholasgirls.moe.edu.sg,501 ANG MO KIO STREET 13,569405,501 ANG MO KIO STREET 13 Singapore 569405,1.3739765,103.834759
CHIJ ST. THERESA'S CONVENT,http://www.chijsttheresasconvent.moe.edu.sg,160 LOWER DELTA ROAD,99138,160 LOWER DELTA ROAD Singapore 99138,1.2761812,103.8229959
CHONGFU SCHOOL,http://www.chongfu.moe.edu.sg/,170 YISHUN AVENUE 6,768959,170 YISHUN AVENUE 6 Singapore 768959,1.438563,103.839285
CHONGZHENG PRIMARY SCHOOL,http://www.chongzhengpri.moe.edu.sg,1 TAMPINES STREET 21,529392,1 TAMPINES STREET 21 Singapore 529392,1.350835,103.951438
CHRIST CHURCH SECONDARY SCHOOL,http://www.christchurchsec.moe.edu.sg,20  WOODLANDS DRIVE 17,737924,20  WOODLANDS DRIVE 17 Singapore 737924,1.4264062,103.7934263
CHUA CHU KANG PRIMARY SCHOOL,http://www.chuachukangpri.moe.edu.sg,20  CHOA CHU KANG AVENUE 2,689905,20  CHOA CHU KANG AVENUE 2 Singapore 689905,1.3779993,103.7417271
CHUA CHU KANG SECONDARY SCHOOL,http://www.chuachukangsec.moe.edu.sg,3 TECK WHYE CRESCENT,688845,3 TECK WHYE CRESCENT Singapore 688845,1.3834811,103.751907
CHUNG CHENG HIGH SCHOOL (MAIN),http://www.chungchenghighmain.moe.edu.sg,50  GOODMAN ROAD,439012,50  GOODMAN ROAD Singapore 439012,1.3058639,103.8911093
CHUNG CHENG HIGH SCHOOL (YISHUN),http://www.chungchenghighyishun.moe.edu.sg,11  YISHUN STREET 61,768547,11  YISHUN STREET 61 Singapore 768547,1.418737,103.837311
CLEMENTI PRIMARY SCHOOL,http://www.clementipri.moe.edu.sg,8 CLEMENTI AVE 3,129903,8 CLEMENTI AVE 3 Singapore 129903,1.3155074,103.7632163
CLEMENTI TOWN SECONDARY SCHOOL,http://www.clementitownsec.moe.edu.sg,10  CLEMENTI AVE 3,129904,10  CLEMENTI AVE 3 Singapore 129904,1.3154809,103.7618194
COMMONWEALTH SECONDARY SCHOOL,http://www.commonwealthsec.moe.edu.sg,698 WEST COAST ROAD,608784,698 WEST COAST ROAD Singapore 608784,1.3196178,103.7456038
COMPASSVALE SECONDARY SCHOOL,http://www.compassvalesec.moe.edu.sg,51  COMPASSVALE CRESCENT,545083,51  COMPASSVALE CRESCENT Singapore 545083,1.396086,103.899711
CONCORD PRIMARY SCHOOL,http://www.concordpri.moe.edu.sg/,3 CHOA CHU KANG AVE 4,689814,3 CHOA CHU KANG AVE 4 Singapore 689814,1.380026,103.73625
CORPORATION PRIMARY SCHOOL,http://www.corporationpri.moe.edu.sg,31  JURONG WEST STREET 24,648347,31  JURONG WEST STREET 24 Singapore 648347,1.3515685,103.7074721
CRESCENT GIRLS' SCHOOL,http://www.crescent.edu.sg,357 TANGLIN ROAD,247961,357 TANGLIN ROAD Singapore 247961,1.2934751,103.8178223
CREST SECONDARY SCHOOL,http://www.crestsec.edu.sg,561 JURONG EAST STREET 24,609561,561 JURONG EAST STREET 24 Singapore 609561,1.3431606,103.742949
DAMAI PRIMARY SCHOOL,http://www.damaipri.moe.edu.sg,52  BEDOK RESERVOIR CRESCENT,479226,52  BEDOK RESERVOIR CRESCENT Singapore 479226,1.3355404,103.9211964
DAMAI SECONDARY SCHOOL,http://www.damaisec.moe.edu.sg,4800 BEDOK RESERVOIR ROAD,479229,4800 BEDOK RESERVOIR ROAD Singapore 479229,1.3370403,103.9215479
DAZHONG PRIMARY SCHOOL,http://www.dazhongpri.moe.edu.sg,35  BUKIT BATOK STREET 31,659441,35  BUKIT BATOK STREET 31 Singapore 659441,1.359,103.7485279
DE LA SALLE SCHOOL,http://www.delasalle.moe.edu.sg,11  Choa Chu Kang St 52,689285,11  Choa Chu Kang St 52 Singapore 689285,1.3944109,103.7434775
DEYI SECONDARY SCHOOL,http://www.deyisec.moe.edu.sg,1 ANG MO KIO STREET 42,569277,1 ANG MO KIO STREET 42 Singapore 569277,1.366107,103.852332
DUNEARN SECONDARY SCHOOL,http://www.dunearnsec.moe.edu.sg,21  BUKIT BATOK WEST AVENUE 2,659204,21  BUKIT BATOK WEST AVENUE 2 Singapore 659204,1.363584,103.7450276
DUNMAN HIGH SCHOOL,http://www.dunmanhigh.moe.edu.sg,10  TANJONG RHU ROAD,436895,10  TANJONG RHU ROAD Singapore 436895,1.2986834,103.8828967
DUNMAN SECONDARY SCHOOL,http://www.dunmansec.moe.edu.sg,21  TAMPINES STREET 45,529093,21  TAMPINES STREET 45 Singapore 529093,1.3608811,103.9562762
EAST SPRING PRIMARY SCHOOL,http://www.eastspringpri.moe.edu.sg,31  TAMPINES ST 33,529258,31  TAMPINES ST 33 Singapore 529258,1.3535819,103.961965
EAST SPRING SECONDARY SCHOOL,http://www.eastspringsec.moe.edu.sg,30  TAMPINES STREET 34,529231,30  TAMPINES STREET 34 Singapore 529231,1.3568002,103.9606858
EDGEFIELD PRIMARY SCHOOL,http://www.edgefieldpri.moe.edu.sg,41  EDGEFIELD PLAINS,828869,41  EDGEFIELD PLAINS Singapore 828869,1.4004367,103.9076926
EDGEFIELD SECONDARY SCHOOL,http://www.edgefieldsec.moe.edu.sg,36  PUNGGOL FIELD,828814,36  PUNGGOL FIELD Singapore 828814,1.3998105,103.9021646
ELIAS PARK PRIMARY SCHOOL,http://www.eliasparkpri.moe.edu.sg,11  PASIR RIS STREET 52,518866,11  PASIR RIS STREET 52 Singapore 518866,1.374848,103.9456811
ENDEAVOUR PRIMARY SCHOOL,https://endeavourpri.moe.edu.sg/,10  Admiralty Link,757521,10  Admiralty Link Singapore 757521,1.4546184,103.8173695
EUNOIA JUNIOR COLLEGE,http://www.eunoiajc.moe.edu.sg,2 Sin Ming Place,573838,2 Sin Ming Place Singapore 573838,1.3626165,103.8394527
EUNOS PRIMARY SCHOOL,http://www.eunospri.moe.edu.sg/,95  JALAN EUNOS,419529,95  JALAN EUNOS Singapore 419529,1.3245878,103.9044302
EVERGREEN PRIMARY SCHOOL,http://www.evergreenpri.moe.edu.sg/,31  WOODLANDS CIRCLE,738908,31  WOODLANDS CIRCLE Singapore 738908,1.444082,103.795038
EVERGREEN SECONDARY SCHOOL,http://www.evergreensec.moe.edu.sg,11  WOODLANDS STREET 83,738489,11  WOODLANDS STREET 83 Singapore 738489,1.4416251,103.793553
FAIRFIELD METHODIST SCHOOL (PRIMARY),http://www.fmsp.moe.edu.sg/,100 DOVER ROAD,139648,100 DOVER ROAD Singapore 139648,1.3007301,103.7858337
FAIRFIELD METHODIST SCHOOL (SECONDARY),http://www.fairfieldmethodistsec.moe.edu.sg,102 DOVER ROAD,139649,102 DOVER ROAD Singapore 139649,1.3017793,103.784589
FAJAR SECONDARY SCHOOL,http://www.fajarsec.moe.edu.sg,31  GANGSA ROAD,678972,31  GANGSA ROAD Singapore 678972,1.3753933,103.7644468
FARRER PARK PRIMARY SCHOOL,http://www.farrerparkpri.moe.edu.sg,2 FARRER PARK ROAD,217567,2 FARRER PARK ROAD Singapore 217567,1.312054,103.8505656
FENGSHAN PRIMARY SCHOOL,http://www.fengshanpri.moe.edu.sg,307 BEDOK NORTH ROAD,469680,307 BEDOK NORTH ROAD Singapore 469680,1.3298137,103.93195
FERN GREEN PRIMARY SCHOOL,www.ferngreenpri.moe.edu.sg,70  Fernvale Link,797538,70  Fernvale Link Singapore 797538,1.3974891,103.8799189
FERNVALE PRIMARY SCHOOL,www.fernvalepri.moe.edu.sg,1 Fernvale Lane,797701,1 Fernvale Lane Singapore 797701,1.3900785,103.8739859
FIRST TOA PAYOH PRIMARY SCHOOL,http://www.firsttoapayohpri.moe.edu.sg,7 LORONG 8 TOA PAYOH,319252,7 LORONG 8 TOA PAYOH Singapore 319252,1.3402865,103.8556195
FRONTIER PRIMARY SCHOOL,http://www.frontierpri.moe.edu.sg,20  Jurong West Street 61,648200,20  Jurong West Street 61 Singapore 648200,1.3366438,103.6998903
FUCHUN PRIMARY SCHOOL,http://www.fuchunpri.moe.edu.sg,23  WOODLANDS AVENUE 1,739063,23  WOODLANDS AVENUE 1 Singapore 739063,1.4302,103.778088
FUCHUN SECONDARY SCHOOL,http://www.fuchunsec.moe.edu.sg,21  WOODLANDS AVENUE 1,739062,21  WOODLANDS AVENUE 1 Singapore 739062,1.4308662,103.7772584
FUHUA PRIMARY SCHOOL,http://www.fuhuapri.moe.edu.sg,65  JURONG EAST STREET 13,609647,65  JURONG EAST STREET 13 Singapore 609647,1.3363694,103.7368474
FUHUA SECONDARY SCHOOL,http://www.fuhuasec.moe.edu.sg,5 JURONG WEST STREET 41,649410,5 JURONG WEST STREET 41 Singapore 649410,1.3472848,103.7265664
GAN ENG SENG PRIMARY SCHOOL,http://www.ganengsengpri.moe.edu.sg,100 REDHILL CLOSE,158901,100 REDHILL CLOSE Singapore 158901,1.285811,103.8151959
GAN ENG SENG SCHOOL,http://www.ganengsengsch.moe.edu.sg,1 HENDERSON ROAD,159561,1 HENDERSON ROAD Singapore 159561,1.2893093,103.8239356
GEYLANG METHODIST SCHOOL (PRIMARY),www.geylangmethodistpri.moe.edu.sg,4 Geylang East Central,389706,4 Geylang East Central Singapore 389706,1.3180847,103.8837244
GEYLANG METHODIST SCHOOL (SECONDARY),http://www.geylangmethodistsec.moe.edu.sg,2 GEYLANG EAST CENTRAL,389705,2 GEYLANG EAST CENTRAL Singapore 389705,1.3181272,103.8828971
GONGSHANG PRIMARY SCHOOL,http://www.gongshangpri.moe.edu.sg,1 TAMPINES STREET 42,529176,1 TAMPINES STREET 42 Singapore 529176,1.3574845,103.9487519
GREENDALE PRIMARY SCHOOL,http://www.greendalepri.moe.edu.sg,50  Edgedale Plains,828848,50  Edgedale Plains Singapore 828848,1.3962652,103.9127224
GREENDALE SECONDARY SCHOOL,http://www.greendalesec.moe.edu.sg,51  EDGEDALE PLAINS,828866,51  EDGEDALE PLAINS Singapore 828866,1.396986,103.9117179
GREENRIDGE PRIMARY SCHOOL,http://www.greenridgepri.moe.edu.sg,11  JELAPANG ROAD,677744,11  JELAPANG ROAD Singapore 677744,1.3856591,103.7679301
GREENRIDGE SECONDARY SCHOOL,http://www.greenridgesec.moe.edu.sg,32  BUKIT PANJANG RING ROAD,679938,32  BUKIT PANJANG RING ROAD Singapore 679938,1.3820239,103.7738492
GREENWOOD PRIMARY SCHOOL,http://www.greenwoodpri.moe.edu.sg,11  WOODLANDS DR 62,737942,11  WOODLANDS DR 62 Singapore 737942,1.4396782,103.8049796
GUANGYANG PRIMARY SCHOOL,http://www.guangyangpri.moe.edu.sg,6 Bishan Street 12,579806,6 Bishan Street 12 Singapore 579806,1.3459881,103.8493489
GUANGYANG SECONDARY SCHOOL,http://guangyangsec.moe.edu.sg,8 BISHAN STREET 12,579807,8 BISHAN STREET 12 Singapore 579807,1.3444398,103.8505203
HAI SING CATHOLIC SCHOOL,http://www.haisingcatholic.moe.edu.sg,9 PASIR RIS DRIVE 6,519421,9 PASIR RIS DRIVE 6 Singapore 519421,1.374513,103.954463
HAIG GIRLS' SCHOOL,http://www.haiggirls.moe.edu.sg,51  Koon Seng Road,427072,51  Koon Seng Road Singapore 427072,1.3119421,103.9027084
HENRY PARK PRIMARY SCHOOL,http://www.henryparkpri.moe.edu.sg,1 HOLLAND GROVE ROAD,278790,1 HOLLAND GROVE ROAD Singapore 278790,1.3166725,103.7841815
HILLGROVE SECONDARY SCHOOL,http://www.hillgrovesec.moe.edu.sg,10  BUKIT BATOK STREET 52,659250,10  BUKIT BATOK STREET 52 Singapore 659250,1.35277,103.752785
HOLY INNOCENTS' HIGH SCHOOL,http://www.holyinnocentshigh.moe.edu.sg,1191 UPPER SERANGOON ROAD,534786,1191 UPPER SERANGOON ROAD Singapore 534786,1.3576474,103.8824703
HOLY INNOCENTS' PRIMARY SCHOOL,http://www.holyinnocentspri.moe.edu.sg/,5 Lorong Low Koon,536451,5 Lorong Low Koon Singapore 536451,1.3667417,103.8938277
HONG WEN SCHOOL,http://www.hongwen.moe.edu.sg,30  TOWNER ROAD,327829,30  TOWNER ROAD Singapore 327829,1.3219501,103.857695
HORIZON PRIMARY SCHOOL,http://www.horizonpri.moe.edu.sg,61  Edgedale Plains,828819,61  Edgedale Plains Singapore 828819,1.3998175,103.9131302
HOUGANG PRIMARY SCHOOL,http://www.hougangpri.moe.edu.sg/,1 HOUGANG ST 93,534238,1 HOUGANG ST 93 Singapore 534238,1.377329,103.8810968
HOUGANG SECONDARY SCHOOL,http://www.hougangsec.moe.edu.sg,2 HOUGANG STREET 93,534256,2 HOUGANG STREET 93 Singapore 534256,1.377661,103.88253
HUA YI SECONDARY SCHOOL,http://www.huayisec.moe.edu.sg,60  JURONG WEST ST 42,649371,60  JURONG WEST ST 42 Singapore 649371,1.3514502,103.7216131
HUAMIN PRIMARY SCHOOL,http://www.huaminpri.moe.edu.sg,21  YISHUN AVENUE 11,768857,21  YISHUN AVENUE 11 Singapore 768857,1.4269293,103.8442699
HWA CHONG INSTITUTION,http://www.hwachong.edu.sg,661 BUKIT TIMAH ROAD,269734,661 BUKIT TIMAH ROAD Singapore 269734,1.3254871,103.8044646
INNOVA PRIMARY SCHOOL,http://www.innovapri.moe.edu.sg/,80  Woodlands Drive 17,737888,80  Woodlands Drive 17 Singapore 737888,1.4293124,103.7906555
JIEMIN PRIMARY SCHOOL,http://www.jieminpri.moe.edu.sg,2 YISHUN STREET 71,768515,2 YISHUN STREET 71 Singapore 768515,1.4276007,103.830502
JING SHAN PRIMARY SCHOOL,http://www.jingshanpri.moe.edu.sg,5 ANG MO KIO ST 52,569228,5 ANG MO KIO ST 52 Singapore 569228,1.3722641,103.8517885
JUNYUAN PRIMARY SCHOOL,https://junyuanpri.moe.edu.sg,2 Tampines Street 91,528906,2 Tampines Street 91 Singapore 528906,1.3478749,103.939687
JUNYUAN SECONDARY SCHOOL,http://www.junyuansec.moe.edu.sg,11  TAMPINES STREET 84,528933,11  TAMPINES STREET 84 Singapore 528933,1.3533278,103.9335232
JURONG PIONEER JUNIOR COLLEGE,http://jpjc.moe.edu.sg,21  Teck Whye Walk,688258,21  Teck Whye Walk Singapore 688258,1.3848221,103.7536953
JURONG PRIMARY SCHOOL,http://www.jurongpri.moe.edu.sg,320 JURONG EAST Street 32,609476,320 JURONG EAST Street 32 Singapore 609476,1.3486398,103.7329926
JURONG SECONDARY SCHOOL,http://www.jurongsec.moe.edu.sg,31  YUAN CHING ROAD,618652,31  YUAN CHING ROAD Singapore 618652,1.3304452,103.7242105
JURONG WEST PRIMARY SCHOOL,http://www.jurongwestpri.moe.edu.sg,30  JURONG WEST ST 61,648368,30  JURONG WEST ST 61 Singapore 648368,1.3390605,103.6988498
JURONG WEST SECONDARY SCHOOL,http://www.jurongwestsec.moe.edu.sg,61  JURONG WEST STREET 65,648348,61  JURONG WEST STREET 65 Singapore 648348,1.3352829,103.7020861
JURONGVILLE SECONDARY SCHOOL,http://www.jurongvillesec.moe.edu.sg,202 JURONG EAST AVENUE 1,609790,202 JURONG EAST AVENUE 1 Singapore 609790,1.3515675,103.7291203
JUYING PRIMARY SCHOOL,http://www.juyingpri.moe.edu.sg/,31  JURONG WEST STREET 91,649037,31  JURONG WEST STREET 91 Singapore 649037,1.3384134,103.6881955
JUYING SECONDARY SCHOOL,http://juyingsec.moe.edu.sg,33  JURONG WEST STREET 91,649038,33  JURONG WEST STREET 91 Singapore 649038,1.3382721,103.6872907
KEMING PRIMARY SCHOOL,http://www.kemingpri.moe.edu.sg,90  BUKIT BATOK EAST AVENUE 6,659762,90  BUKIT BATOK EAST AVENUE 6 Singapore 659762,1.3453842,103.7565689
KENT RIDGE SECONDARY SCHOOL,http://www.kentridgesec.moe.edu.sg,147 WEST COAST ROAD,127368,147 WEST COAST ROAD Singapore 127368,1.3013766,103.7649426
KHENG CHENG SCHOOL,http://www.khengcheng.moe.edu.sg/,15  LORONG 3 TOA PAYOH,319580,15  LORONG 3 TOA PAYOH Singapore 319580,1.3371355,103.8476215
KONG HWA SCHOOL,http://www.konghwa.moe.edu.sg,350 GUILLEMARD ROAD,399772,350 GUILLEMARD ROAD Singapore 399772,1.311043,103.8882737
KRANJI PRIMARY SCHOOL,http://kranjipri.moe.edu.sg,11  CHOA CHU KANG STREET 54,689189,11  CHOA CHU KANG STREET 54 Singapore 689189,1.3935002,103.7478732
KRANJI SECONDARY SCHOOL,http://www.kranjisec.moe.edu.sg,61  CHOA CHU KANG STREET 51,689333,61  CHOA CHU KANG STREET 51 Singapore 689333,1.3904615,103.7416898
KUO CHUAN PRESBYTERIAN PRIMARY SCHOOL,http://www.kuochuanpresbyterianpri.moe.edu.sg,8 BISHAN STREET 13,579793,8 BISHAN STREET 13 Singapore 579793,1.3493915,103.8552309
KUO CHUAN PRESBYTERIAN SECONDARY SCHOOL,http://www.kuochuanpresbyteriansec.moe.edu.sg,10  BISHAN STREET 13,579795,10  BISHAN STREET 13 Singapore 579795,1.3503461,103.8547779
LAKESIDE PRIMARY SCHOOL,http://www.lakesidepri.moe.edu.sg/,161 Corporation Walk,618310,161 Corporation Walk Singapore 618310,1.3385354,103.7182375
LIANHUA PRIMARY SCHOOL,http://www.lianhuapri.moe.edu.sg/,2 BUKIT BATOK STREET 52,659243,2 BUKIT BATOK STREET 52 Singapore 659243,1.3541067,103.7540217
LOYANG VIEW SECONDARY SCHOOL,http://www.loyangviewsec.moe.edu.sg,12  PASIR RIS STREET 11,519073,12  PASIR RIS STREET 11 Singapore 519073,1.3670099,103.9568428
MAHA BODHI SCHOOL,http://www.mahabodhi.moe.edu.sg/,10  UBI AVENUE 1,408931,10  UBI AVENUE 1 Singapore 408931,1.328413,103.9015463
MANJUSRI SECONDARY SCHOOL,http://www.manjusrisec.moe.edu.sg,20  UBI AVENUE 1,408940,20  UBI AVENUE 1 Singapore 408940,1.3275332,103.9011678
MARIS STELLA HIGH SCHOOL,http://www.marisstellahigh.moe.edu.sg,25  MOUNT VERNON ROAD,368051,25  MOUNT VERNON ROAD Singapore 368051,1.341737,103.8782839
MARSILING PRIMARY SCHOOL,http://www.marsilingpri.moe.edu.sg,31  WOODLANDS CENTRE ROAD,738927,31  WOODLANDS CENTRE ROAD Singapore 738927,1.4341138,103.7736338
MARSILING SECONDARY SCHOOL,http://www.marsilingsec.moe.edu.sg,12  MARSILING ROAD,739110,12  MARSILING ROAD Singapore 739110,1.4381712,103.7763046
MARYMOUNT CONVENT SCHOOL,HTTP://WWW.MARYMOUNTCONVENT.MOE.EDU.SG,20  Marymount Road,297754,20  Marymount Road Singapore 297754,1.340253,103.8401937
MAYFLOWER PRIMARY SCHOOL,http://www.mayflowerpri.moe.edu.sg,6 Ang Mo Kio Avenue 2,569948,6 Ang Mo Kio Avenue 2 Singapore 569948,1.376169,103.8358455
MAYFLOWER SECONDARY SCHOOL,http://www.mayflowersec.moe.edu.sg,2 ANG MO KIO STREET 21,569384,2 ANG MO KIO STREET 21 Singapore 569384,1.3683284,103.8354381
MEE TOH SCHOOL,http://www.meetoh.moe.edu.sg/,21  EDGEDALE PLAINS,828867,21  EDGEDALE PLAINS Singapore 828867,1.3946943,103.9088934
MERIDIAN PRIMARY SCHOOL,http://www.meridianpri.moe.edu.sg/,20  PASIR RIS ST 71,518798,20  PASIR RIS ST 71 Singapore 518798,1.3758346,103.9352907
MERIDIAN SECONDARY SCHOOL,http://www.meridiansec.moe.edu.sg,31  PASIR RIS STREET 51,518901,31  PASIR RIS STREET 51 Singapore 518901,1.3676582,103.9493864
METHODIST GIRLS' SCHOOL (PRIMARY),http://www.mgs.sch.edu.sg,11  Blackmore Drive,599986,11  Blackmore Drive Singapore 599986,1.3330977,103.7824839
METHODIST GIRLS' SCHOOL (SECONDARY),http://www.mgs.moe.edu.sg,11  BLACKMORE DRIVE,599986,11  BLACKMORE DRIVE Singapore 599986,1.3330977,103.7824839
MILLENNIA INSTITUTE,http://www.millenniainstitute.moe.edu.sg,60  Bukit Batok West Avenue 8,658965,60  Bukit Batok West Avenue 8 Singapore 658965,1.3499489,103.7414409
MONTFORT JUNIOR SCHOOL,http://www.montfortjunior.moe.edu.sg/,52  HOUGANG AVENUE 8,538786,52  HOUGANG AVENUE 8 Singapore 538786,1.3739295,103.8894804
MONTFORT SECONDARY SCHOOL,https://montfortsec.moe.edu.sg/,50  HOUGANG AVENUE 8,538785,50  HOUGANG AVENUE 8 Singapore 538785,1.3734781,103.8890672
NAN CHIAU HIGH SCHOOL,http://www.nchs.edu.sg,20  ANCHORVALE LINK,545079,20  ANCHORVALE LINK Singapore 545079,1.3887967,103.8902711
NAN CHIAU PRIMARY SCHOOL,http://www.ncps.moe.edu.sg,50  ANCHORVALE LINK,545080,50  ANCHORVALE LINK Singapore 545080,1.3923669,103.8907015
NAN HUA HIGH SCHOOL,http://www.nanhuahigh.moe.edu.sg,41  CLEMENTI AVENUE 1,129956,41  CLEMENTI AVENUE 1 Singapore 129956,1.30807,103.769189
NAN HUA PRIMARY SCHOOL,http://www.nanhuapri.moe.edu.sg,30  Jalan Lempeng,128806,30  Jalan Lempeng Singapore 128806,1.3196188,103.761412
NANYANG GIRLS' HIGH SCHOOL,https://www.nygh.edu.sg,2 LINDEN DRIVE,288683,2 LINDEN DRIVE Singapore 288683,1.3305569,103.8022132
NANYANG JUNIOR COLLEGE,http://www.nanyangjc.moe.edu.sg/,128 SERANGOON AVENUE 3,556111,128 SERANGOON AVENUE 3 Singapore 556111,1.3515054,103.8682342
NANYANG PRIMARY SCHOOL,http://www.nyps.moe.edu.sg,52  KING'S ROAD,268097,52  KING'S ROAD Singapore 268097,1.3209661,103.8081313
NATIONAL JUNIOR COLLEGE,http://www.nationaljc.moe.edu.sg,37  HILLCREST ROAD,288913,37  HILLCREST ROAD Singapore 288913,1.3299339,103.8044872
NAVAL BASE PRIMARY SCHOOL,http://www.navalbasepri.moe.edu.sg/,7 YISHUN AVE 4,769028,7 YISHUN AVE 4 Singapore 769028,1.4163264,103.8387445
NAVAL BASE SECONDARY SCHOOL,http://www.navalbasesec.moe.edu.sg,901 YISHUN RING ROAD,768689,901 YISHUN RING ROAD Singapore 768689,1.4194513,103.8314983
NEW TOWN PRIMARY SCHOOL,http://www.newtownpri.moe.edu.sg/,300 Tanglin Halt Road,148812,300 Tanglin Halt Road Singapore 148812,1.2996373,103.800185
NEW TOWN SECONDARY SCHOOL,http://www.newtownsec.moe.edu.sg,1020 DOVER ROAD,139657,1020 DOVER ROAD Singapore 139657,1.3038064,103.7794345
NGEE ANN PRIMARY SCHOOL,http://www.ngeeannpri.moe.edu.sg,344 MARINE TERRACE,449149,344 MARINE TERRACE Singapore 449149,1.3055653,103.9181149
NGEE ANN SECONDARY SCHOOL,http://www.ngeeannsec.moe.edu.sg,1 TAMPINES STREET 32,529283,1 TAMPINES STREET 32 Singapore 529283,1.353896,103.9567861
NORTH SPRING PRIMARY SCHOOL,http://www.northspringpri.moe.edu.sg,1 RIVERVALE STREET,545088,1 RIVERVALE STREET Singapore 545088,1.3870509,103.9034259
NORTH VIEW PRIMARY SCHOOL,http://www.northviewpri.moe.edu.sg,210 YISHUN AVENUE 6,768960,210 YISHUN AVENUE 6 Singapore 768960,1.4276072,103.8483115
NORTH VISTA PRIMARY SCHOOL,http://www.northvistapri.moe.edu.sg,20  Compassvale Link,544974,20  Compassvale Link Singapore 544974,1.3828084,103.8960478
NORTH VISTA SECONDARY SCHOOL,http://www.northvistasec.moe.edu.sg,11  RIVERVALE LINK,545081,11  RIVERVALE LINK Singapore 545081,1.3811423,103.8989929
NORTHBROOKS SECONDARY SCHOOL,http://www.northbrookssec.moe.edu.sg,585 YISHUN RING ROAD,768692,585 YISHUN RING ROAD Singapore 768692,1.4209822,103.8450852
NORTHLAND PRIMARY SCHOOL,http://www.northlandpri.moe.edu.sg,15  YISHUN AVENUE 4,769026,15  YISHUN AVENUE 4 Singapore 769026,1.4210098,103.8405561
NORTHLAND SECONDARY SCHOOL,http://www.northlandsec.moe.edu.sg,3 YISHUN STREET 22,768578,3 YISHUN STREET 22 Singapore 768578,1.4358598,103.8401975
NORTHLIGHT SCHOOL,https://www.nls.edu.sg,151 Towner Road,327830,151 Towner Road Singapore 327830,1.3197777,103.856139
NORTHOAKS PRIMARY SCHOOL,http://www.northoakspri.moe.edu.sg,61  Sembawang Drive,757622,61  Sembawang Drive Singapore 757622,1.4566726,103.8139677
NORTHSHORE PRIMARY SCHOOL,www.northshorepri.moe.edu.sg,30  Northshore Drive,828671,30  Northshore Drive Singapore 828671,1.4185162,103.9043644
NUS HIGH SCHOOL OF MATHEMATICS AND SCIENCE,www.nushigh.edu.sg,20  Clementi Avenue 1,129957,20  Clementi Avenue 1 Singapore 129957,1.3072221,103.7693352
OASIS PRIMARY SCHOOL,http://www.oasispri.moe.edu.sg/,71  Edgefield Plains,828716,71  Edgefield Plains Singapore 828716,1.404285,103.9109661
OPERA ESTATE PRIMARY SCHOOL,http://www.operaestatepri.moe.edu.sg,48  FIDELIO STREET,458436,48  FIDELIO STREET Singapore 458436,1.3195034,103.9236436
ORCHID PARK SECONDARY SCHOOL,http://www.orchidparksec.moe.edu.sg,10  YISHUN STREET 81,768454,10  YISHUN STREET 81 Singapore 768454,1.4153017,103.8383822
OUTRAM SECONDARY SCHOOL,http://www.outramsec.moe.edu.sg,3 YORK HILL,168622,3 YORK HILL Singapore 168622,1.2861277,103.8372952
PALM VIEW PRIMARY SCHOOL,http://www.palmviewpri.moe.edu.sg,150 Compassvale Bow,544822,150 Compassvale Bow Singapore 544822,1.384048,103.8909281
PARK VIEW PRIMARY SCHOOL,http://www.parkviewpri.moe.edu.sg,60  PASIR RIS DRIVE 1,519524,60  PASIR RIS DRIVE 1 Singapore 519524,1.3767026,103.9387243
PASIR RIS CREST SECONDARY SCHOOL,http://www.prcss.moe.edu.sg,11  PASIR RIS STREET 41,518934,11  PASIR RIS STREET 41 Singapore 518934,1.3728705,103.9595399
PASIR RIS PRIMARY SCHOOL,http://www.pasirrispri.moe.edu.sg,5 PASIR RIS STREET 21,518968,5 PASIR RIS STREET 21 Singapore 518968,1.3725581,103.9628036
PASIR RIS SECONDARY SCHOOL,http://pasirrissec.moe.edu.sg,390 TAMPINES STREET 21,529400,390 TAMPINES STREET 21 Singapore 529400,1.3547764,103.9486612
PAYA LEBAR METHODIST GIRLS' SCHOOL (PRIMARY),http://www.payalebarmethodistgirlspri.moe.edu.sg/,298 LORONG AH SOO,536741,298 LORONG AH SOO Singapore 536741,1.3509402,103.8848118
PAYA LEBAR METHODIST GIRLS' SCHOOL (SECONDARY),http://www.plmgss.moe.edu.sg,296 LOR AH SOO,536742,296 LOR AH SOO Singapore 536742,1.3510455,103.8855819
PEI CHUN PUBLIC SCHOOL,http://www.peichunpublic.moe.edu.sg,16  LORONG 7 TOA PAYOH,319320,16  LORONG 7 TOA PAYOH Singapore 319320,1.3369754,103.855803
PEI HWA PRESBYTERIAN PRIMARY SCHOOL,http://www.peihwapresbyterianpri.moe.edu.sg/,7 PEI WAH AVENUE,597610,7 PEI WAH AVENUE Singapore 597610,1.3379184,103.7761693
PEI HWA SECONDARY SCHOOL,http://www.peihwasec.moe.edu.sg,21  FERNVALE LINK,797702,21  FERNVALE LINK Singapore 797702,1.3908626,103.8787863
PEI TONG PRIMARY SCHOOL,http://www.peitongpri.moe.edu.sg/,15  CLEMENTI AVENUE 5,129857,15  CLEMENTI AVENUE 5 Singapore 129857,1.3160707,103.767568
PEICAI SECONDARY SCHOOL,http://www.peicaisec.moe.edu.sg,10  SERANGOON AVENUE 4,556094,10  SERANGOON AVENUE 4 Singapore 556094,1.3593621,103.8705415
PEIRCE SECONDARY SCHOOL,http://www.peircesec.moe.edu.sg,10  SIN MING WALK,575566,10  SIN MING WALK Singapore 575566,1.3663969,103.8298425
PEIYING PRIMARY SCHOOL,http://www.peiyingpri.moe.edu.sg,651 YISHUN RING ROAD,768687,651 YISHUN RING ROAD Singapore 768687,1.4174051,103.8302303
PING YI SECONDARY SCHOOL,http://pingyisec.moe.edu.sg,61  CHAI CHEE STREET,468980,61  CHAI CHEE STREET Singapore 468980,1.3265803,103.9206073
PIONEER PRIMARY SCHOOL,http://www.pioneerpri.moe.edu.sg,23  JURONG WEST STREET 81,649076,23  JURONG WEST STREET 81 Singapore 649076,1.3485457,103.6946864
POI CHING SCHOOL,http://www.poiching.moe.edu.sg,21  TAMPINES STREET 71,529067,21  TAMPINES STREET 71 Singapore 529067,1.3583173,103.935523
PRESBYTERIAN HIGH SCHOOL,http://www.presbyterian.moe.edu.sg,5209 ANG MO KIO AVENUE 6,569845,5209 ANG MO KIO AVENUE 6 Singapore 569845,1.3760492,103.8451154
PRINCESS ELIZABETH PRIMARY SCHOOL,http://www.princesselizabethpri.moe.edu.sg,30  BUKIT BATOK WEST AVENUE 3,659163,30  BUKIT BATOK WEST AVENUE 3 Singapore 659163,1.3494947,103.7410015
PUNGGOL COVE PRIMARY SCHOOL,https://punggolcovepri.moe.edu.sg/,52  Sumang Walk,828674,52  Sumang Walk Singapore 828674,1.4111091,103.8979619
PUNGGOL GREEN PRIMARY SCHOOL,http://www.punggolgreenpri.moe.edu.sg,98  Punggol Walk,828772,98  Punggol Walk Singapore 828772,1.4019576,103.8986304
PUNGGOL PRIMARY SCHOOL,http://www.punggolpri.moe.edu.sg/,61  HOUGANG AVENUE 8,538787,61  HOUGANG AVENUE 8 Singapore 538787,1.3784568,103.8947339
PUNGGOL SECONDARY SCHOOL,http://www.punggolsec.moe.edu.sg,51  EDGEFIELD PLAINS,828870,51  EDGEFIELD PLAINS Singapore 828870,1.4017275,103.9093919
PUNGGOL VIEW PRIMARY SCHOOL,http://www.punggolviewpri.moe.edu.sg,9 Punggol Place,828845,9 Punggol Place Singapore 828845,1.4052688,103.9051886
QIFA PRIMARY SCHOOL,http://www.qifapri.moe.edu.sg,50  WEST COAST AVENUE,128104,50  WEST COAST AVENUE Singapore 128104,1.3126176,103.7568857
QIHUA PRIMARY SCHOOL,http://www.qihuapri.moe.edu.sg,5 WOODLANDS STREET 81,738525,5 WOODLANDS STREET 81 Singapore 738525,1.4419523,103.7881202
QUEENSTOWN PRIMARY SCHOOL,http://www.queenstownpri.moe.edu.sg,310 MARGARET DR,149303,310 MARGARET DR Singapore 149303,1.2958718,103.8076794
QUEENSTOWN SECONDARY SCHOOL,http://www.queenstownsec.moe.edu.sg,1 STRATHMORE ROAD,148800,1 STRATHMORE ROAD Singapore 148800,1.2938664,103.8132036
QUEENSWAY SECONDARY SCHOOL,http://www.queenswaysec.moe.edu.sg,2A  MARGARET DRIVE,149295,2A  MARGARET DRIVE Singapore 149295,1.3005119,103.8019743
RADIN MAS PRIMARY SCHOOL,http://www.radinmasps.moe.edu.sg,1 BUKIT PURMEI AVENUE,99840,1 BUKIT PURMEI AVENUE Singapore 99840,1.274493,103.8242639
RAFFLES GIRLS' PRIMARY SCHOOL,http://www.rafflesgirlspri.moe.edu.sg,21  Hillcrest Road,289072,21  Hillcrest Road Singapore 289072,1.330198,103.806321
RAFFLES GIRLS' SCHOOL (SECONDARY),http://www.rgs.edu.sg,2 BRADDELL RISE,318871,2 BRADDELL RISE Singapore 318871,1.3431522,103.8437425
RAFFLES INSTITUTION,http://www.ri.edu.sg,1 RAFFLES INSTITUTION LANE,575954,1 RAFFLES INSTITUTION LANE Singapore 575954,1.3460084,103.8460868
RED SWASTIKA SCHOOL,http://www.redswastika.moe.edu.sg,350 BEDOK NORTH AVENUE 3,469719,350 BEDOK NORTH AVENUE 3 Singapore 469719,1.3332677,103.9346109
REGENT SECONDARY SCHOOL,http://regentsec.moe.edu.sg,50  CHOA CHU KANG NORTH 5,689621,50  CHOA CHU KANG NORTH 5 Singapore 689621,1.393079,103.750966
RIVER VALLEY HIGH SCHOOL,https://rivervalleyhigh.moe.edu.sg/,6 BOON LAY AVENUE,649961,6 BOON LAY AVENUE Singapore 649961,1.3438742,103.7095559
RIVER VALLEY PRIMARY SCHOOL,http://www.rivervalleypri.moe.edu.sg,2 RIVER VALLEY GREEN,237993,2 RIVER VALLEY GREEN Singapore 237993,1.2938838,103.8363894
RIVERSIDE PRIMARY SCHOOL,http://www.riversidepri.moe.edu.sg,110 Woodlands Crescent,737803,110 Woodlands Crescent Singapore 737803,1.4470785,103.8017786
RIVERSIDE SECONDARY SCHOOL,http://www.riversidesec.moe.edu.sg,3 WOODLANDS STREET 81,738524,3 WOODLANDS STREET 81 Singapore 738524,1.4404449,103.7885277
RIVERVALE PRIMARY SCHOOL,http://www.rivervalepri.moe.edu.sg/,80  RIVERVALE DRIVE,545092,80  RIVERVALE DRIVE Singapore 545092,1.3932649,103.9043735
ROSYTH SCHOOL,https://www.rosyth.moe.edu.sg,21  Serangoon North Avenue 4,555855,21  Serangoon North Avenue 4 Singapore 555855,1.3727425,103.8750292
RULANG PRIMARY SCHOOL,http://www.rulangpri.moe.edu.sg/,6 JURONG WEST STREET 52,649295,6 JURONG WEST STREET 52 Singapore 649295,1.3470354,103.7189643
"SCHOOL OF SCIENCE AND TECHNOLOGY, SINGAPORE",http://www.sst.edu.sg,1 Technology Drive,138572,1 Technology Drive Singapore 138572,1.3131445,103.7738601
"SCHOOL OF THE ARTS, SINGAPORE",http://www.sota.edu.sg/,1 Zubir Said Drive,227968,1 Zubir Said Drive Singapore 227968,1.2993734,103.8487619
SEMBAWANG PRIMARY SCHOOL,http://www.sembawangpri.moe.edu.sg,10  SEMBAWANG DRIVE,757715,10  SEMBAWANG DRIVE Singapore 757715,1.4454915,103.8211733
SEMBAWANG SECONDARY SCHOOL,http://www.sembawangsec.moe.edu.sg,30  SEMBAWANG CRESCENT,757704,30  SEMBAWANG CRESCENT Singapore 757704,1.4459577,103.8170072
SENG KANG PRIMARY SCHOOL,http://www.sengkangpri.moe.edu.sg/,21  COMPASSVALE WALK,545166,21  COMPASSVALE WALK Singapore 545166,1.388932,103.8993414
SENG KANG SECONDARY SCHOOL,http://www.sengkangsec.moe.edu.sg,10  COMPASSVALE LANE,545090,10  COMPASSVALE LANE Singapore 545090,1.3865506,103.8985583
SENGKANG GREEN PRIMARY SCHOOL,http://www.sengkanggreenpri.moe.edu.sg/,15  Fernvale Road,797636,15  Fernvale Road Singapore 797636,1.3925337,103.8751169
SERANGOON GARDEN SECONDARY SCHOOL,http://www.sgs.edu.sg,21  SERANGOON NORTH AVENUE 1,555889,21  SERANGOON NORTH AVENUE 1 Singapore 555889,1.3695073,103.8694184
SERANGOON SECONDARY SCHOOL,http://www.serangoonsec.moe.edu.sg,11  UPPER SERANGOON VIEW,534237,11  UPPER SERANGOON VIEW Singapore 534237,1.374969,103.9022552
SHUQUN PRIMARY SCHOOL,http://www.shuqunpri.moe.edu.sg,8 JURONG WEST STREET 51,649332,8 JURONG WEST STREET 51 Singapore 649332,1.3476069,103.7214982
SI LING PRIMARY SCHOOL,http://www.silingpri.moe.edu.sg,61  WOODLANDS AVENUE 1,739067,61  WOODLANDS AVENUE 1 Singapore 739067,1.4328639,103.7859471
SINGAPORE CHINESE GIRLS' PRIMARY SCHOOL,www.scgs.moe.edu.sg,190 DUNEARN ROAD,309437,190 DUNEARN ROAD Singapore 309437,1.3212164,103.8283283
SINGAPORE CHINESE GIRLS' SCHOOL,http://www.scgs.moe.edu.sg,190 DUNEARN ROAD,309437,190 DUNEARN ROAD Singapore 309437,1.3212164,103.8283283
SINGAPORE SPORTS SCHOOL,http://www.sportsschool.edu.sg,1 Champions Way,737913,1 Champions Way Singapore 737913,1.426703,103.789056
SOUTH VIEW PRIMARY SCHOOL,http://www.southviewpri.moe.edu.sg,6 Choa Chu Kang Central,689762,6 Choa Chu Kang Central Singapore 689762,1.3809924,103.7470018
SPECTRA SECONDARY SCHOOL,https://www.spectra.edu.sg,1 WOODLANDS DRIVE 64,737758,1 WOODLANDS DRIVE 64 Singapore 737758,1.4363831,103.8044646
SPRINGDALE PRIMARY SCHOOL,http://springdalepri.moe.edu.sg/,71  Anchorvale Link,544799,71  Anchorvale Link Singapore 544799,1.3949665,103.8897326
SPRINGFIELD SECONDARY SCHOOL,http://www.springfieldsec.moe.edu.sg,30  TAMPINES AVENUE 8,529593,30  TAMPINES AVENUE 8 Singapore 529593,1.3498342,103.9300788
ST. ANDREW'S JUNIOR COLLEGE,http://www.standrewsjc.moe.edu.sg/,5 Sorby Adams Drive,357691,5 Sorby Adams Drive Singapore 357691,1.3334063,103.8628633
ST. ANDREW'S JUNIOR SCHOOL,http://www.saintandrewsjunior.moe.edu.sg,2 FRANCIS THOMAS DRIVE,359337,2 FRANCIS THOMAS DRIVE Singapore 359337,1.3312553,103.8649236
ST. ANDREW'S SECONDARY SCHOOL,http://www.standrewssec.moe.edu.sg,15  FRANCIS THOMAS DRIVE,359342,15  FRANCIS THOMAS DRIVE Singapore 359342,1.331532,103.8658417
ST. ANTHONY'S CANOSSIAN PRIMARY SCHOOL,http://www.stanthonyscanossianpri.moe.edu.sg,1602 BEDOK NORTH AVE 4,469701,1602 BEDOK NORTH AVE 4 Singapore 469701,1.3349612,103.9435588
ST. ANTHONY'S CANOSSIAN SECONDARY SCHOOL,http://www.stanthonyscanossiansec.moe.edu.sg,1600 BEDOK NORTH AVENUE 4,469700,1600 BEDOK NORTH AVENUE 4 Singapore 469700,1.3349612,103.9435588
ST. ANTHONY'S PRIMARY SCHOOL,http://www.stanthonyspri.moe.edu.sg,30  Bukit Batok St 32,659401,30  Bukit Batok St 32 Singapore 659401,1.3642757,103.7490186
ST. GABRIEL'S PRIMARY SCHOOL,http://www.stgabrielspri.moe.edu.sg,220 Lorong Chuan,556742,220 Lorong Chuan Singapore 556742,1.3493505,103.8622971
ST. GABRIEL'S SECONDARY SCHOOL,http://www.stgabrielssec.moe.edu.sg,24  SERANGOON AVENUE 1,556140,24  SERANGOON AVENUE 1 Singapore 556140,1.3470208,103.8757737
ST. HILDA'S PRIMARY SCHOOL,http://www.shps.moe.edu.sg,2 Tampines Ave 3,529706,2 Tampines Ave 3 Singapore 529706,1.3492104,103.936605
ST. HILDA'S SECONDARY SCHOOL,http://www.sthildassec.moe.edu.sg,2 TAMPINES STREET 82,528986,2 TAMPINES STREET 82 Singapore 528986,1.3504543,103.9366957
ST. JOSEPH'S INSTITUTION,http://www.sji.edu.sg,38  MALCOLM ROAD,308274,38  MALCOLM ROAD Singapore 308274,1.3235155,103.827908
ST. JOSEPH'S INSTITUTION JUNIOR,http://www.sjijunior.edu.sg,3 ESSEX ROAD,309331,3 ESSEX ROAD Singapore 309331,1.3173332,103.8451535
ST. MARGARET'S PRIMARY SCHOOL,na,2 Mattar Road,387724,2 Mattar Road Singapore 387724,1.324352,103.8816858
ST. MARGARET'S SECONDARY SCHOOL,http://www.stmargaretssec.moe.edu.sg,111 FARRER ROAD,259240,111 FARRER ROAD Singapore 259240,1.3200175,103.8095717
ST. PATRICK'S SCHOOL,http://www.stpatricks.moe.edu.sg,490 EAST COAST ROAD,429058,490 EAST COAST ROAD Singapore 429058,1.3088628,103.9169367
ST. STEPHEN'S SCHOOL,http://www.ststephens.moe.edu.sg,20  SIGLAP VIEW,455789,20  SIGLAP VIEW Singapore 455789,1.3188814,103.9175727
STAMFORD PRIMARY SCHOOL,http://www.stamfordpri.moe.edu.sg,1 VICTORIA LANE,198423,1 VICTORIA LANE Singapore 198423,1.304116,103.8572692
SWISS COTTAGE SECONDARY SCHOOL,http://www.swisscottagesec.moe.edu.sg,3 BUKIT BATOK STREET 34,659322,3 BUKIT BATOK STREET 34 Singapore 659322,1.3647249,103.7504587
TAMPINES MERIDIAN JUNIOR COLLEGE,http://www.tmjc.moe.edu.sg,21  Pasir Ris Street 71,518799,21  Pasir Ris Street 71 Singapore 518799,1.3766654,103.9372395
TAMPINES NORTH PRIMARY SCHOOL,http://www.tampinesnorthpri.moe.edu.sg,30  TAMPINES AVENUE 9,529565,30  TAMPINES AVENUE 9 Singapore 529565,1.3607786,103.9488425
TAMPINES PRIMARY SCHOOL,http://www.tampinespri.moe.edu.sg,250 TAMPINES STREET 12,529426,250 TAMPINES STREET 12 Singapore 529426,1.349774,103.94402
TAMPINES SECONDARY SCHOOL,https://www.tampinessec.moe.edu.sg,252 TAMPINES ST 12,529427,252 TAMPINES ST 12 Singapore 529427,1.3498263,103.9439474
TANGLIN SECONDARY SCHOOL,http://www.tanglinsec.moe.edu.sg,301 WEST COAST ROAD,127391,301 WEST COAST ROAD Singapore 127391,1.3096831,103.7581531
TANJONG KATONG GIRLS' SCHOOL,http://www.tkgs.moe.edu.sg,20  Dunman Lane,439272,20  Dunman Lane Singapore 439272,1.3086344,103.8958892
TANJONG KATONG PRIMARY SCHOOL,http://www.tanjongkatongpri.moe.edu.sg/,10  Seraya Road,437259,10  Seraya Road Singapore 437259,1.305373,103.900352
TANJONG KATONG SECONDARY SCHOOL,http://www.tanjongkatongsec.moe.edu.sg,130 HAIG ROAD,438796,130 HAIG ROAD Singapore 438796,1.3087546,103.8972712
TAO NAN SCHOOL,http://www.taonan.moe.edu.sg,49  MARINE CRESCENT,449761,49  MARINE CRESCENT Singapore 449761,1.3049455,103.9113177
TECK GHEE PRIMARY SCHOOL,http://www.teckgheepri.moe.edu.sg,1 ANG MO KIO STREET 32,569299,1 ANG MO KIO STREET 32 Singapore 569299,1.3652354,103.8510638
TECK WHYE PRIMARY SCHOOL,http://www.teckwhyepri.moe.edu.sg,11  TECK WHYE WALK,688261,11  TECK WHYE WALK Singapore 688261,1.3831228,103.7536043
TECK WHYE SECONDARY SCHOOL,http://www.teckwhyesec.moe.edu.sg,31  TECK WHYE CRESCENT,688848,31  TECK WHYE CRESCENT Singapore 688848,1.3824643,103.7549282
TELOK KURAU PRIMARY SCHOOL,http://www.telokkuraupri.moe.edu.sg,50  BEDOK RESERVOIR RD,479239,50  BEDOK RESERVOIR RD Singapore 479239,1.3309135,103.9114083
TEMASEK JUNIOR COLLEGE,http://www.temasekjc.moe.edu.sg,22  BEDOK SOUTH ROAD,469278,22  BEDOK SOUTH ROAD Singapore 469278,1.3187741,103.9360612
TEMASEK PRIMARY SCHOOL,http://www.temasekpri.moe.edu.sg,501 BEDOK SOUTH AVE 3,469300,501 BEDOK SOUTH AVE 3 Singapore 469300,1.3176398,103.9457357
TEMASEK SECONDARY SCHOOL,https://temaseksec.moe.edu.sg,600 UPPER EAST COAST ROAD,465561,600 UPPER EAST COAST ROAD Singapore 465561,1.3158567,103.9472031
TOWNSVILLE PRIMARY SCHOOL,http://www.townsvillepri.moe.edu.sg/,3 ANG MO KIO AVE 10,569730,3 ANG MO KIO AVE 10 Singapore 569730,1.3600534,103.8537829
UNITY PRIMARY SCHOOL,http://www.unitypri.moe.edu.sg,21  CHOA CHU KANG CRESCENT,688268,21  CHOA CHU KANG CRESCENT Singapore 688268,1.403245,103.74729
UNITY SECONDARY SCHOOL,http://www.unitysec.moe.edu.sg,20  CHOA CHU KANG STREET 62,689143,20  CHOA CHU KANG STREET 62 Singapore 689143,1.3996484,103.7461138
VALOUR PRIMARY SCHOOL,valourpri.moe.edu.sg,49  Punggol Central,828728,49  Punggol Central Singapore 828728,1.4071989,103.8986758
VICTORIA JUNIOR COLLEGE,http://www.victoriajc.moe.edu.sg/,20  MARINE VISTA,449035,20  MARINE VISTA Singapore 449035,1.306142,103.919825
VICTORIA SCHOOL,http://www.victoria.moe.edu.sg,2 SIGLAP LINK,448880,2 SIGLAP LINK Singapore 448880,1.3085542,103.9275015
WATERWAY PRIMARY SCHOOL,https://waterwaypri.moe.edu.sg,70  Punggol Drive,828802,70  Punggol Drive Singapore 828802,1.3992346,103.9186134
WELLINGTON PRIMARY SCHOOL,http://www.wellingtonpri.moe.edu.sg,10  WELLINGTON CIRCLE,757702,10  WELLINGTON CIRCLE Singapore 757702,1.4519448,103.8222601
WEST GROVE PRIMARY SCHOOL,http://www.westgrovepri.moe.edu.sg/,1 JURONG WEST ST 72,649223,1 JURONG WEST ST 72 Singapore 649223,1.3445428,103.6987956
WEST SPRING PRIMARY SCHOOL,http://www.westspringpri.moe.edu.sg,60  Bukit Panjang Ring Road,679946,60  Bukit Panjang Ring Road Singapore 679946,1.3898289,103.7664137
WEST SPRING SECONDARY SCHOOL,http://www.westspringsec.moe.edu.sg,61  SENJA ROAD,677737,61  SENJA ROAD Singapore 677737,1.3876582,103.7599975
WEST VIEW PRIMARY SCHOOL,http://www.westviewpri.moe.edu.sg,31  SENJA ROAD,677742,31  SENJA ROAD Singapore 677742,1.383358,103.7603257
WESTWOOD PRIMARY SCHOOL,http://www.westwoodpri.moe.edu.sg,1 Jurong West Street 73,649188,1 Jurong West Street 73 Singapore 649188,1.3475751,103.7003201
WESTWOOD SECONDARY SCHOOL,http://www.westwoodsec.moe.edu.sg,11  JURONG WEST STREET 25,648350,11  JURONG WEST STREET 25 Singapore 648350,1.3538309,103.7019036
WHITE SANDS PRIMARY SCHOOL,http://www.whitesandspri.moe.edu.sg,2 PASIR RIS ST 11,519075,2 PASIR RIS ST 11 Singapore 519075,1.3649395,103.9612928
WHITLEY SECONDARY SCHOOL,http://www.whitleysec.moe.edu.sg,30  BISHAN STREET 24,579747,30  BISHAN STREET 24 Singapore 579747,1.3554302,103.8431376
WOODGROVE PRIMARY SCHOOL,http://www.woodgrovepri.moe.edu.sg/,2 WOODLANDS DRIVE 14,738079,2 WOODLANDS DRIVE 14 Singapore 738079,1.4331667,103.7904291
WOODGROVE SECONDARY SCHOOL,https://woodgrovesec.moe.edu.sg/,3 WOODLANDS AVENUE 6,738990,3 WOODLANDS AVENUE 6 Singapore 738990,1.4286898,103.7964506
WOODLANDS PRIMARY SCHOOL,http://www.woodlandspri.moe.edu.sg,10  WOODLANDS DRIVE 50,738853,10  WOODLANDS DRIVE 50 Singapore 738853,1.4369385,103.7917421
WOODLANDS RING PRIMARY SCHOOL,HTTP://www.woodlandsringpri.moe.edu.sg,11  WOODLANDS RING ROAD,738240,11  WOODLANDS RING ROAD Singapore 738240,1.4345519,103.7978994
WOODLANDS RING SECONDARY SCHOOL,http://www.woodlandsringsec.moe.edu.sg,10  WOODLANDS RING ROAD,738239,10  WOODLANDS RING ROAD Singapore 738239,1.4364793,103.8007519
WOODLANDS SECONDARY SCHOOL,http://www.woodlandssec.moe.edu.sg,11  MARSILING ROAD,739111,11  MARSILING ROAD Singapore 739111,1.439688,103.774358
XINGHUA PRIMARY SCHOOL,http://www.xinghuapri.moe.edu.sg,45  HOUGANG AVENUE 1,538882,45  HOUGANG AVENUE 1 Singapore 538882,1.3578651,103.8901578
XINGNAN PRIMARY SCHOOL,http://www.xingnanpri.moe.edu.sg,5 JURONG WEST STREET 91,649036,5 JURONG WEST STREET 91 Singapore 649036,1.342811,103.6878336
XINMIN PRIMARY SCHOOL,http://www.xinminpri.moe.edu.sg/,9 HOUGANG AVENUE 8,538784,9 HOUGANG AVENUE 8 Singapore 538784,1.371146,103.8829316
XINMIN SECONDARY SCHOOL,http://www.xinminsec.moe.edu.sg,11  HOUGANG AVENUE 8,538789,11  HOUGANG AVENUE 8 Singapore 538789,1.3721943,103.8829117
XISHAN PRIMARY SCHOOL,https://www.xishanpri.moe.edu.sg/,8 YISHUN STREET 21,768611,8 YISHUN STREET 21 Singapore 768611,1.4334989,103.8378387
YANGZHENG PRIMARY SCHOOL,http://www.yangzhengpri.moe.edu.sg/,15  SERANGOON AVENUE 3,556108,15  SERANGOON AVENUE 3 Singapore 556108,1.3488686,103.8683258
YEW TEE PRIMARY SCHOOL,http://www.yewteepri.moe.edu.sg,10  CHOA CHU KANG ST 64,689100,10  CHOA CHU KANG ST 64 Singapore 689100,1.3966935,103.7511941
YIO CHU KANG PRIMARY SCHOOL,http://www.yiochukangpri.moe.edu.sg,1 HOUGANG STREET 51,538720,1 HOUGANG STREET 51 Singapore 538720,1.3779983,103.8855819
YIO CHU KANG SECONDARY SCHOOL,http://www.yiochukangsec.moe.edu.sg,3063 ANG MO KIO AVENUE 5,569868,3063 ANG MO KIO AVENUE 5 Singapore 569868,1.3758877,103.8556196
YISHUN INNOVA JUNIOR COLLEGE,https://yijc.moe.edu.sg/,3 YISHUN RING ROAD,768675,3 YISHUN RING ROAD Singapore 768675,1.4249639,103.8297774
YISHUN PRIMARY SCHOOL,http://www.yishunpri.moe.edu.sg,500 YISHUN RING ROAD,768679,500 YISHUN RING ROAD Singapore 768679,1.4334484,103.834125
YISHUN SECONDARY SCHOOL,http://www.yishunsec.moe.edu.sg,4 YISHUN STREET 71,768516,4 YISHUN STREET 71 Singapore 768516,1.4281966,103.8290528
YISHUN TOWN SECONDARY SCHOOL,http://www.yishuntownsec.moe.edu.sg,6 YISHUN STREET 21,768610,6 YISHUN STREET 21 Singapore 768610,1.4323977,103.8379293
YU NENG PRIMARY SCHOOL,http://www.ynps.moe.edu.sg/,56  BEDOK NORTH ST 3,469623,56  BEDOK NORTH ST 3 Singapore 469623,1.3338657,103.9324355
YUAN CHING SECONDARY SCHOOL,http://www.yuanchingsec.moe.edu.sg,103 YUAN CHING ROAD,618654,103 YUAN CHING ROAD Singapore 618654,1.3417138,103.7212126
YUHUA PRIMARY SCHOOL,http://www.yuhuapri.moe.edu.sg,158 JURONG EAST STREET 24,609558,158 JURONG EAST STREET 24 Singapore 609558,1.3428019,103.7406829
YUHUA SECONDARY SCHOOL,http://www.yuhuasec.moe.edu.sg,35  JURONG WEST STREET 41,649406,35  JURONG WEST STREET 41 Singapore 649406,1.3472936,103.7226017
YUMIN PRIMARY SCHOOL,http://www.yuminpri.moe.edu.sg,3 TAMPINES STREET 21,529393,3 TAMPINES STREET 21 Singapore 529393,1.3514701,103.9507462
YUSOF ISHAK SECONDARY SCHOOL,http://www.yusofishaksec.moe.edu.sg,11  BUKIT BATOK STREET 25,658712,11  BUKIT BATOK STREET 25 Singapore 658712,1.342423,103.760309
YUYING SECONDARY SCHOOL,http://www.yuyingsec.moe.edu.sg,47  HOUGANG AVENUE 1,538884,47  HOUGANG AVENUE 1 Singapore 538884,1.3567493,103.8899993
ZHANGDE PRIMARY SCHOOL,http://www.zhangdepri.moe.edu.sg/,51  Jalan Membina,169485,51  Jalan Membina Singapore 169485,1.2842897,103.8258828
ZHENGHUA PRIMARY SCHOOL,http://www.zhenghuapri.moe.edu.sg,9 Fajar Road,679002,9 Fajar Road Singapore 679002,1.3795762,103.7693086
ZHENGHUA SECONDARY SCHOOL,http://www.zhenghuasec.moe.edu.sg,91  SENJA ROAD,677741,91  SENJA ROAD Singapore 677741,1.388974,103.7653047
ZHONGHUA PRIMARY SCHOOL,http://www.zhonghuapri.moe.edu.sg,12  SERANGOON AVENUE 4,556095,12  SERANGOON AVENUE 4 Singapore 556095,1.3598531,103.8695741
ZHONGHUA SECONDARY SCHOOL,http://www.zhonghuasec.moe.edu.sg,13  SERANGOON AVENUE 3,556123,13  SERANGOON AVENUE 3 Singapore 556123,1.3494016,103.8692504
